NORAD_CAT_ID,OBJECT_NAME,OBJECT_TYPE,EPOCH,MEAN_MOTION,ECCENTRICITY,INCLINATION,RA_OF_ASC_NODE,ARG_OF_PERICENTER,MEAN_ANOMALY,BSTAR,MEAN_MOTION_DOT,MEAN_MOTION_DDOT,TLE_LINE0,TLE_LINE1,TLE_LINE2,SEMIMAJOR_AXIS,PERIOD,APOGEE,PERIGEE,DECAYED
55438.0,STARLINK-5074,PAYLOAD,2023-12-22 06:00:11,14.98321738,0.0002669,70.0008,302.6504,251.1796,108.9074,-6.5898e-05,-8.79e-06,0.0,0 STARLINK-5074,1 55438U 23014AZ  23356.25013621 -.00000879  00000-0 -65898-4 0  9990,2 55438  70.0008 302.6504 0002669 251.1796 108.9074 14.98321738 50961,6950.218,96.108,573.938,570.228,0.0
55438.0,STARLINK-5074,PAYLOAD,2023-12-22 22:01:32,14.98329956,0.0002827,69.9996,300.966,256.6692,103.4152,-9.1656e-05,-1.186e-05,0.0,0 STARLINK-5074,1 55438U 23014AZ  23356.91773289 -.00001186  00000-0 -91656-4 0  9999,2 55438  69.9996 300.9660 0002827 256.6692 103.4152 14.98329956 51068,6950.193,96.107,574.023,570.093,0.0
55438.0,STARLINK-5074,PAYLOAD,2023-12-23 02:49:56,14.98329872,0.0002731,70.0,300.4615,252.4576,107.6284,-6.4045e-05,-8.57e-06,0.0,0 STARLINK-5074,1 55438U 23014AZ  23357.11801208 -.00000857  00000-0 -64045-4 0  9991,2 55438  70.0000 300.4615 0002731 252.4576 107.6284 14.98329872 50159,6950.193,96.107,573.956,570.16,0.0
55438.0,STARLINK-5074,PAYLOAD,2023-12-23 06:02:12,14.98330979,0.0002573,70.0007,300.1257,243.9455,116.1439,-4.4438e-05,-6.23e-06,0.0,0 STARLINK-5074,1 55438U 23014AZ  23357.25153058 -.00000623  00000-0 -44438-4 0  9994,2 55438  70.0007 300.1257 0002573 243.9455 116.1439 14.98330979 51114,6950.19,96.107,573.843,570.267,0.0
55438.0,STARLINK-5074,PAYLOAD,2023-12-23 22:03:33,14.9832512,0.0002726,69.9995,298.4404,261.9304,98.1546,4.9508e-05,4.98e-06,0.0,0 STARLINK-5074,1 55438U 23014AZ  23357.91913245  .00000498  00000-0  49508-4 0  9990,2 55438  69.9995 298.4404 0002726 261.9304  98.1546 14.98325120 51214,6950.208,96.107,573.968,570.178,0.0
55438.0,STARLINK-5074,PAYLOAD,2023-12-24 02:51:57,14.98325816,0.0002711,69.9996,297.9355,261.6937,98.3915,5.5863e-05,5.74e-06,0.0,0 STARLINK-5074,1 55438U 23014AZ  23358.11941237  .00000574  00000-0  55863-4 0  9991,2 55438  69.9996 297.9355 0002711 261.6937  98.3915 14.98325816 50300,6950.206,96.107,573.955,570.187,0.0
55438.0,STARLINK-5074,PAYLOAD,2023-12-24 06:04:13,14.98328441,0.0002514,69.9998,297.5979,263.0098,97.0775,0.00011617,1.293e-05,0.0,0 STARLINK-5074,1 55438U 23014AZ  23358.25292967  .00001293  00000-0  11617-3 0  9992,2 55438  69.9998 297.5979 0002514 263.0098  97.0775 14.98328441 51268,6950.198,96.107,573.81,570.315,0.0
55438.0,STARLINK-5074,PAYLOAD,2023-12-24 22:05:33,14.98330487,0.0002521,69.9998,295.9139,265.2671,94.82,5.4275e-05,5.55e-06,0.0,0 STARLINK-5074,1 55438U 23014AZ  23358.92052967  .00000555  00000-0  54275-4 0  9998,2 55438  69.9998 295.9139 0002521 265.2671  94.8200 14.98330487 51369,6950.191,96.107,573.809,570.304,0.0
55438.0,STARLINK-5074,PAYLOAD,2023-12-25 02:53:57,14.98330312,0.0002439,69.9998,295.4087,262.22,97.8682,5.346e-05,5.45e-06,0.0,0 STARLINK-5074,1 55438U 23014AZ  23359.12080961  .00000545  00000-0  53460-4 0  9990,2 55438  69.9998 295.4087 0002439 262.2200  97.8682 14.98330312 50452,6950.192,96.107,573.752,570.362,0.0
55438.0,STARLINK-5074,PAYLOAD,2023-12-25 06:06:13,14.98334494,0.0002351,70.0,295.0725,258.7495,101.34,9.6251e-05,1.056e-05,0.0,0 STARLINK-5074,1 55438U 23014AZ  23359.25432552  .00001056  00000-0  96251-4 0  9994,2 55438  70.0000 295.0725 0002351 258.7495 101.3400 14.98334494 51414,6950.179,96.107,573.678,570.41,0.0
55438.0,STARLINK-5074,PAYLOAD,2023-12-25 22:07:35,14.98325942,0.0002253,70.0009,293.3901,253.9015,106.1896,-3.1149e-05,-4.64e-06,0.0,0 STARLINK-5074,1 55438U 23014AZ  23359.92193313 -.00000464  00000-0 -31149-4 0  9996,2 55438  70.0009 293.3901 0002253 253.9015 106.1896 14.98325942 51517,6950.205,96.107,573.636,570.505,0.0
55438.0,STARLINK-5074,PAYLOAD,2023-12-26 02:55:59,14.98320237,0.0002493,70.001,292.8853,261.5015,98.5862,5.02e-05,5.06e-06,0.0,0 STARLINK-5074,1 55438U 23014AZ  23360.12221446  .00000506  00000-0  50200-4 0  9993,2 55438  70.0010 292.8853 0002493 261.5015  98.5862 14.98320237 50608,6950.223,96.108,573.821,570.355,0.0
55438.0,STARLINK-5074,PAYLOAD,2023-12-26 06:08:15,14.98323882,0.0002211,70.001,292.548,256.4543,103.637,2.1041e-05,1.58e-06,0.0,0 STARLINK-5074,1 55438U 23014AZ  23360.25573389  .00000158  00000-0  21041-4 0  9997,2 55438  70.0010 292.5480 0002211 256.4543 103.6370 14.98323882 51565,6950.212,96.107,573.614,570.54,0.0
55438.0,STARLINK-5074,PAYLOAD,2023-12-26 20:33:27,14.98330325,0.0002656,69.9999,291.0325,264.4298,95.6559,-1.3028e-05,-2.48e-06,0.0,0 STARLINK-5074,1 55438U 23014AZ  23360.85656959 -.00000248  00000-0 -13028-4 0  9996,2 55438  69.9999 291.0325 0002656 264.4298  95.6559 14.98330325 50714,6950.192,96.107,573.903,570.211,0.0
55438.0,STARLINK-5074,PAYLOAD,2023-12-26 22:09:35,14.98330945,0.0002615,69.9998,290.8643,262.0454,98.0408,-3.4262e-05,-5.02e-06,0.0,0 STARLINK-5074,1 55438U 23014AZ  23360.92332974 -.00000502  00000-0 -34262-4 0  9998,2 55438  69.9998 290.8643 0002615 262.0454  98.0408 14.98330945 51669,6950.19,96.107,573.872,570.237,0.0
55438.0,STARLINK-5074,PAYLOAD,2023-12-27 04:34:07,14.98318142,0.0002743,70.0003,290.1913,257.1117,102.9736,0.0002585,2.992e-05,0.0,0 STARLINK-5074,1 55438U 23014AZ  23361.19036971  .00002992  00000-0  25850-3 0  9991,2 55438  70.0003 290.1913 0002743 257.1117 102.9736 14.98318142 51704,6950.23,96.108,574.001,570.188,0.0
55438.0,STARLINK-5074,PAYLOAD,2023-12-27 22:11:36,14.983231,0.0002531,70.0,288.34,257.5525,102.5351,9.5292e-06,2.1e-07,0.0,0 STARLINK-5074,1 55438U 23014AZ  23361.92473280  .00000021  00000-0  95292-5 0  9990,2 55438  70.0000 288.3400 0002531 257.5525 102.5351 14.98323100 51814,6950.214,96.107,573.838,570.32,0.0
55438.0,STARLINK-5074,PAYLOAD,2023-12-28 03:00:01,14.98323295,0.0002566,70.0003,287.8356,258.8603,101.2267,1.8214e-05,1.24e-06,0.0,0 STARLINK-5074,1 55438U 23014AZ  23362.12501317  .00000124  00000-0  18214-4 0  9998,2 55438  70.0003 287.8356 0002566 258.8603 101.2267 14.98323295 50906,6950.214,96.107,573.862,570.295,0.0
55438.0,STARLINK-5074,PAYLOAD,2023-12-28 04:36:09,14.98325154,0.0002519,70.0004,287.6668,255.764,104.3239,3.5813e-05,3.34e-06,0.0,0 STARLINK-5074,1 55438U 23014AZ  23362.19177220  .00000334  00000-0  35813-4 0  9994,2 55438  70.0004 287.6668 0002519 255.7640 104.3239 14.98325154 51850,6950.208,96.107,573.824,570.322,0.0
55438.0,STARLINK-5074,PAYLOAD,2023-12-28 22:13:37,14.98329971,0.0002856,69.9996,285.8151,258.8217,101.2621,-4.0616e-05,-5.78e-06,0.0,0 STARLINK-5074,1 55438U 23014AZ  23362.92613043 -.00000578  00000-0 -40616-4 0  9992,2 55438  69.9996 285.8151 0002856 258.8217 101.2621 14.98329971 51966,6950.193,96.107,574.043,570.073,0.0
55438.0,STARLINK-5074,PAYLOAD,2023-12-29 03:02:01,14.98329571,0.0002955,69.9997,285.3102,264.4161,95.6661,3.6219e-05,3.39e-06,0.0,0 STARLINK-5074,1 55438U 23014AZ  23363.12640911  .00000339  00000-0  36219-4 0  9996,2 55438  69.9997 285.3102 0002955 264.4161  95.6661 14.98329571 51055,6950.194,96.107,574.113,570.005,0.0
55438.0,STARLINK-5074,PAYLOAD,2023-12-29 04:38:09,14.98332424,0.0002814,69.9996,285.1422,258.6109,101.4734,8.7316e-06,1.1e-07,0.0,0 STARLINK-5074,1 55438U 23014AZ  23363.19316789  .00000011  00000-0  87316-5 0  9998,2 55438  69.9996 285.1422 0002814 258.6109 101.4734 14.98332424 52002,6950.185,96.107,574.006,570.095,0.0
55438.0,STARLINK-5074,PAYLOAD,2023-12-29 22:15:38,14.98353635,0.0002893,69.9997,283.2904,258.3976,101.6859,-0.00042411,-5.153e-05,0.0,0 STARLINK-5074,1 55438U 23014AZ  23363.92752738 -.00005153  00000-0 -42411-3 0  9996,2 55438  69.9997 283.2904 0002893 258.3976 101.6859 14.98353635 52112,6950.12,96.105,573.995,569.974,0.0
55438.0,STARLINK-5074,PAYLOAD,2023-12-30 03:04:02,14.9833088,0.0003032,69.9997,282.7859,264.255,95.8263,7.2056e-05,7.67e-06,0.0,0 STARLINK-5074,1 55438U 23014AZ  23364.12780688  .00000767  00000-0  72056-4 0  9997,2 55438  69.9997 282.7859 0003032 264.2550  95.8263 14.98330880 51204,6950.19,96.107,574.162,569.948,0.0
55438.0,STARLINK-5074,PAYLOAD,2023-12-30 04:40:10,14.98332501,0.0003046,69.9994,282.6157,270.7428,89.3382,8.631e-05,9.37e-06,0.0,0 STARLINK-5074,1 55438U 23014AZ  23364.19456599  .00000937  00000-0  86310-4 0  9992,2 55438  69.9994 282.6157 0003046 270.7428  89.3382 14.98332501 52159,6950.185,96.107,574.167,569.933,0.0
55438.0,STARLINK-5074,PAYLOAD,2023-12-30 22:17:39,14.98311403,0.0002611,69.9999,280.7652,266.8898,93.1962,0.00033384,3.891e-05,0.0,0 STARLINK-5074,1 55438U 23014AZ  23364.92893080  .00003891  00000-0  33384-3 0  9997,2 55438  69.9999 280.7652 0002611 266.8898  93.1962 14.98311403 52264,6950.25,96.108,573.93,570.301,0.0
55438.0,STARLINK-5074,PAYLOAD,2023-12-31 03:06:03,14.98333334,0.0002967,69.9988,280.2595,270.984,89.0979,3.1625e-05,2.84e-06,0.0,0 STARLINK-5074,1 55438U 23014AZ  23365.12920600  .00000284  00000-0  31625-4 0  9999,2 55438  69.9988 280.2595 0002967 270.9840  89.0979 14.98333334 51358,6950.183,96.107,574.11,569.985,0.0
55438.0,STARLINK-5074,PAYLOAD,2023-12-31 19:07:24,14.98327907,0.000288,69.9989,278.5757,269.3527,90.7302,-3.3483e-05,-4.92e-06,0.0,0 STARLINK-5074,1 55438U 23014AZ  23365.79681053 -.00000492  00000-0 -33483-4 0  9995,2 55438  69.9989 278.5757 0002880 269.3527  90.7302 14.98327907 51456,6950.199,96.107,574.066,570.063,0.0
55438.0,STARLINK-5074,PAYLOAD,2023-12-31 22:19:40,14.98331374,0.0002917,69.999,278.2391,271.392,88.6904,-3.1664e-05,-4.71e-06,0.0,0 STARLINK-5074,1 55438U 23014AZ  23365.93032846 -.00000471  00000-0 -31664-4 0  9997,2 55438  69.9990 278.2391 0002917 271.3920  88.6904 14.98331374 52414,6950.189,96.107,574.081,570.026,0.0
55438.0,STARLINK-5074,PAYLOAD,2024-01-01 03:08:04,14.98333899,0.0002931,69.9989,277.7342,271.3093,88.773,2.9507e-05,2.59e-06,0.0,0 STARLINK-5074,1 55438U 23014AZ  24001.13060478  .00000259  00000-0  29507-4 0  9994,2 55438  69.9989 277.7342 0002931 271.3093  88.7730 14.98333899 51500,6950.181,96.107,574.083,570.009,0.0
